[{"OBJECT_NAME":"LAPAN-A3","OBJECT_ID":"2016-040E","EPOCH":"2026-03-09T23:01:57.724896","MEAN_MOTION":15.3238951,"ECCENTRICITY":0.00109839,"INCLINATION":97.1488,"RA_OF_ASC_NODE":68.4254,"ARG_OF_PERICENTER":22.062,"MEAN_ANOMALY":338.1093,"EPHEMERIS_TYPE":0,"CLASSIFICATION_TYPE":"U","NORAD_CAT_ID":41603,"ELEMENT_SET_NO":999,"REV_AT_EPOCH":53961,"BSTAR":0.00017567445,"MEAN_MOTION_DOT":5.428e-5,"MEAN_MOTION_DDOT":0},{"OBJECT_NAME":"STARLINK-35488","OBJECT_ID":"2025-245W","EPOCH":"2026-03-09T20:58:48.694080","MEAN_MOTION":15.30195842,"ECCENTRICITY":0.00010091,"INCLINATION":53.1565,"RA_OF_ASC_NODE":283.1162,"ARG_OF_PERICENTER":83.7537,"MEAN_ANOMALY":276.3579,"EPHEMERIS_TYPE":0,"CLASSIFICATION_TYPE":"U","NORAD_CAT_ID":66254,"ELEMENT_SET_NO":999,"REV_AT_EPOCH":2128,"BSTAR":0.00076839006,"MEAN_MOTION_DOT":0.00022464,"MEAN_MOTION_DDOT":0}]
